NORAD_CAT_ID,OBJECT_NAME,OBJECT_TYPE,EPOCH,MEAN_MOTION,ECCENTRICITY,INCLINATION,RA_OF_ASC_NODE,ARG_OF_PERICENTER,MEAN_ANOMALY,BSTAR,MEAN_MOTION_DOT,MEAN_MOTION_DDOT,TLE_LINE0,TLE_LINE1,TLE_LINE2,SEMIMAJOR_AXIS,PERIOD,APOGEE,PERIGEE,DECAYED
55650.0,STARLINK-5494,PAYLOAD,2024-05-01 08:32:03,14.98344465,0.0002704,69.9988,92.2435,254.3935,105.6926,0.00019482,2.233e-05,0.0,0 STARLINK-5494,1 55650U 23021Y   24122.35559626  .00002233  00000-0  19482-3 0  9998,2 55650  69.9988  92.2435 0002704 254.3935 105.6926 14.98344465 67034,6950.148,96.106,573.892,570.134,0.0
55650.0,STARLINK-5494,PAYLOAD,2024-05-01 14:56:36,14.98336621,0.0002687,69.9988,91.5701,267.3281,92.757,0.00012376,1.384e-05,0.0,0 STARLINK-5494,1 55650U 23021Y   24122.62264211  .00001384  00000-0  12376-3 0  9992,2 55650  69.9988  91.5701 0002687 267.3281  92.7570 14.98336621 67070,6950.172,96.107,573.905,570.17,0.0
55650.0,STARLINK-5494,PAYLOAD,2024-05-02 06:57:56,14.98338632,0.0002887,69.9991,89.8868,267.7279,92.355,1.4612e-05,8.1e-07,0.0,0 STARLINK-5494,1 55650U 23021Y   24123.29023754  .00000081  00000-0  14612-4 0  9990,2 55650  69.9991  89.8868 0002887 267.7279  92.3550 14.98338632 67473,6950.166,96.106,574.038,570.025,0.0
55650.0,STARLINK-5494,PAYLOAD,2024-05-02 21:23:09,14.98338223,0.0002728,69.9993,88.3741,263.7559,96.3289,-0.00013516,-1.706e-05,0.0,0 STARLINK-5494,1 55650U 23021Y   24123.89107820 -.00001706  00000-0 -13516-3 0  9991,2 55650  69.9993  88.3741 0002728 263.7559  96.3289 14.98338223 67266,6950.167,96.106,573.928,570.136,0.0
55650.0,STARLINK-5494,PAYLOAD,2024-05-03 03:47:42,14.9832906,0.0003098,69.9984,87.6978,265.8388,94.2417,-0.0002473,-3.042e-05,0.0,0 STARLINK-5494,1 55650U 23021Y   24124.15812593 -.00003042  00000-0 -24730-3 0  9996,2 55650  69.9984  87.6978 0003098 265.8388  94.2417 14.98329060 67308,6950.196,96.107,574.214,569.908,0.0
55650.0,STARLINK-5494,PAYLOAD,2024-05-03 06:59:58,14.98330369,0.0003027,69.9985,87.3611,266.2108,93.8705,-0.00021892,-2.704e-05,0.0,0 STARLINK-5494,1 55650U 23021Y   24124.29164438 -.00002704  00000-0 -21892-3 0  9999,2 55650  69.9985  87.3611 0003027 266.2108  93.8705 14.98330369 67621,6950.192,96.107,574.161,569.953,0.0
55650.0,STARLINK-5494,PAYLOAD,2024-05-03 23:01:18,14.98326525,0.0003013,69.9988,85.6782,269.2929,90.7885,-5.8509e-05,-7.91e-06,0.0,0 STARLINK-5494,1 55650U 23021Y   24124.95924275 -.00000791  00000-0 -58509-4 0  9995,2 55650  69.9988  85.6782 0003013 269.2929  90.7885 14.98326525 67728,6950.204,96.107,574.163,569.975,0.0
55650.0,STARLINK-5494,PAYLOAD,2024-05-04 05:25:50,14.98329028,0.0003035,69.9988,85.0048,270.4663,89.6149,-6.3735e-05,-8.53e-06,0.0,0 STARLINK-5494,1 55650U 23021Y   24125.22628206 -.00000853  00000-0 -63735-4 0  9997,2 55650  69.9988  85.0048 0003035 270.4663  89.6149 14.98329028 67462,6950.196,96.107,574.17,569.952,0.0
55650.0,STARLINK-5494,PAYLOAD,2024-05-05 03:51:42,14.98330902,0.0003031,69.999,82.6481,269.0286,91.0525,0.00018763,2.146e-05,0.0,0 STARLINK-5494,1 55650U 23021Y   24126.16091406  .00002146  00000-0  18763-3 0  9992,2 55650  69.9990  82.6481 0003031 269.0286  91.0525 14.98330902 67604,6950.19,96.107,574.162,569.948,0.0
55650.0,STARLINK-5494,PAYLOAD,2024-05-05 07:03:58,14.98334166,0.0002985,69.9992,82.3113,268.6456,91.4361,0.00021728,2.501e-05,0.0,0 STARLINK-5494,1 55650U 23021Y   24126.29443111  .00002501  00000-0  21728-3 0  9990,2 55650  69.9992  82.3113 0002985 268.6456  91.4361 14.98334166 67929,6950.18,96.107,574.12,569.97,0.0
55650.0,STARLINK-5494,PAYLOAD,2024-05-05 23:05:19,14.98331967,0.0002901,69.9995,80.628,268.855,91.2277,6.1486e-05,6.41e-06,0.0,0 STARLINK-5494,1 55650U 23021Y   24126.96203573  .00000641  00000-0  61486-4 0  9999,2 55650  69.9995  80.6280 0002901 268.8550  91.2277 14.98331967 68025,6950.187,96.107,574.068,570.036,0.0
55650.0,STARLINK-5494,PAYLOAD,2024-05-06 03:53:43,14.98334834,0.0002883,69.9995,80.1232,268.8017,91.2812,9.7117e-05,1.066e-05,0.0,0 STARLINK-5494,1 55650U 23021Y   24127.16231248  .00001066  00000-0  97117-4 0  9994,2 55650  69.9995  80.1232 0002883 268.8017  91.2812 14.98334834 67754,6950.178,96.107,574.047,570.039,0.0
55650.0,STARLINK-5494,PAYLOAD,2024-05-06 13:30:32,14.98337563,0.0002857,69.9996,79.1132,269.4469,90.6363,4.8408e-05,4.85e-06,0.0,0 STARLINK-5494,1 55650U 23021Y   24127.56287057  .00000485  00000-0  48408-4 0  9990,2 55650  69.9996  79.1132 0002857 269.4469  90.6363 14.98337563 68118,6950.17,96.107,574.02,570.049,0.0
55650.0,STARLINK-5494,PAYLOAD,2024-05-06 21:31:12,14.9834098,0.0002811,69.9997,78.2717,268.9144,91.1693,-1.5738e-05,-2.81e-06,0.0,0 STARLINK-5494,1 55650U 23021Y   24127.89666830 -.00000281  00000-0 -15738-4 0  9992,2 55650  69.9997  78.2717 0002811 268.9144  91.1693 14.98340980 68166,6950.159,96.106,573.978,570.07,0.0
55650.0,STARLINK-5494,PAYLOAD,2024-05-07 03:55:44,14.98341338,0.0002787,69.9998,77.5989,267.3149,92.7691,-7.4394e-06,-1.82e-06,0.0,0 STARLINK-5494,1 55650U 23021Y   24128.16370597 -.00000182  00000-0 -74394-5 0  9999,2 55650  69.9998  77.5989 0002787 267.3149  92.7691 14.98341338 67904,6950.158,96.106,573.96,570.086,0.0
55650.0,STARLINK-5494,PAYLOAD,2024-05-07 13:32:32,14.9836421,0.0002119,70.0022,76.5892,277.1759,82.916,-0.00069525,-8.385e-05,0.0,0 STARLINK-5494,1 55650U 23021Y   24128.56426641 -.00008385  00000-0 -69525-3 0  9996,2 55650  70.0022  76.5892 0002119 277.1759  82.9160 14.98364210 68268,6950.087,96.105,573.425,570.479,0.0
55650.0,STARLINK-5494,PAYLOAD,2024-05-07 21:33:13,14.98325438,0.0002265,70.0022,75.7497,255.3036,104.7873,-3.7206e-05,-5.37e-06,0.0,0 STARLINK-5494,1 55650U 23021Y   24128.89807444 -.00000537  00000-0 -37206-4 0  9999,2 55650  70.0022  75.7497 0002265 255.3036 104.7873 14.98325438 68014,6950.207,96.107,573.646,570.498,0.0
55650.0,STARLINK-5494,PAYLOAD,2024-05-08 13:34:34,14.98327401,0.0002623,70.0008,74.0651,268.906,91.1799,-6.496e-05,-8.68e-06,0.0,0 STARLINK-5494,1 55650U 23021Y   24129.56567578 -.00000868  00000-0 -64960-4 0  9999,2 55650  70.0008  74.0651 0002623 268.9060  91.1799 14.98327401 68419,6950.201,96.107,573.889,570.243,0.0
55650.0,STARLINK-5494,PAYLOAD,2024-05-08 21:35:14,14.98333909,0.0002788,70.0002,73.2228,270.4014,89.6826,-1.7148e-05,-2.98e-06,0.0,0 STARLINK-5494,1 55650U 23021Y   24129.89946970 -.00000298  00000-0 -17148-4 0  9995,2 55650  70.0002  73.2228 0002788 270.4014  89.6826 14.98333909 68168,6950.181,96.107,573.984,570.108,0.0
55650.0,STARLINK-5494,PAYLOAD,2024-05-09 13:36:34,14.98333103,0.0002801,70.0006,71.5394,263.6536,96.4304,-4.8418e-05,-6.71e-06,0.0,0 STARLINK-5494,1 55650U 23021Y   24130.56706971 -.00000671  00000-0 -48418-4 0  9995,2 55650  70.0006  71.5394 0002801 263.6536  96.4304 14.98333103 68563,6950.183,96.107,573.995,570.102,0.0
55650.0,STARLINK-5494,PAYLOAD,2024-05-09 21:37:15,14.98325234,0.0002933,70.0004,70.6977,271.1669,88.9154,0.00011613,1.293e-05,0.0,0 STARLINK-5494,1 55650U 23021Y   24130.90087111  .00001293  00000-0  11613-3 0  9996,2 55650  70.0004  70.6977 0002933 271.1669  88.9154 14.98325234 68616,6950.208,96.107,574.111,570.034,0.0
55650.0,STARLINK-5494,PAYLOAD,2024-05-10 04:01:47,14.98328704,0.0002926,70.0,70.0227,267.0158,93.0666,0.00013928,1.569e-05,0.0,0 STARLINK-5494,1 55650U 23021Y   24131.16790853  .00001569  00000-0  13928-3 0  9996,2 55650  70.0000  70.0227 0002926 267.0158  93.0666 14.98328704 68354,6950.197,96.107,574.096,570.028,0.0
55650.0,STARLINK-5494,PAYLOAD,2024-05-10 13:38:35,14.98328668,0.0003021,70.0003,69.0121,269.2763,90.805,3.7833e-05,3.58e-06,0.0,0 STARLINK-5494,1 55650U 23021Y   24131.56847117  .00000358  00000-0  37833-4 0  9993,2 55650  70.0003  69.0121 0003021 269.2763  90.8050 14.98328668 68712,6950.197,96.107,574.162,569.962,0.0
55650.0,STARLINK-5494,PAYLOAD,2024-05-10 21:39:16,14.98328542,0.0002931,70.0007,68.1706,269.8344,90.2479,1.6559e-05,1.05e-06,0.0,0 STARLINK-5494,1 55650U 23021Y   24131.90227253  .00000105  00000-0  16559-4 0  9996,2 55650  70.0007  68.1706 0002931 269.8344  90.2479 14.98328542 68760,6950.197,96.107,574.1,570.025,0.0
55650.0,STARLINK-5494,PAYLOAD,2024-05-11 04:03:47,14.98350255,0.000262,70.001,67.4993,270.7876,89.2982,0.00018648,2.134e-05,0.0,0 STARLINK-5494,1 55650U 23021Y   24132.16929421  .00002134  00000-0  18648-3 0  9995,2 55650  70.0010  67.4993 0002620 270.7876  89.2982 14.98350255 68505,6950.13,96.106,573.816,570.174,0.0
55650.0,STARLINK-5494,PAYLOAD,2024-05-11 05:39:53,14.98365669,0.0002808,70.0007,67.3309,265.4397,94.6441,0.00033723,3.937e-05,0.0,0 STARLINK-5494,1 55650U 23021Y   24132.23603854  .00003937  00000-0  33723-3 0  9995,2 55650  70.0007  67.3309 0002808 265.4397  94.6441 14.98365669 68514,6950.083,96.105,573.899,569.996,0.0
55650.0,STARLINK-5494,PAYLOAD,2024-05-11 21:41:18,14.98295986,0.0004236,70.0,65.6467,288.5202,71.5497,-0.00042024,-5.1e-05,0.0,0 STARLINK-5494,1 55650U 23021Y   24132.90368749 -.00005100  00000-0 -42024-3 0  9990,2 55650  70.0000  65.6467 0004236 288.5202  71.5497 14.98295986 68611,6950.298,96.109,575.107,569.219,0.0
55650.0,STARLINK-5494,PAYLOAD,2024-05-12 04:05:56,14.98239212,0.0002921,70.0002,64.9753,267.2415,92.8409,-0.0010518,-0.00012591,0.0,0 STARLINK-5494,1 55650U 23021Y   24133.17079020 -.00012591  00000-0 -10518-2 0  9995,2 55650  70.0002  64.9753 0002921 267.2415  92.8409 14.98239212 68655,6950.474,96.113,574.369,570.308,0.0
55650.0,STARLINK-5494,PAYLOAD,2024-05-12 12:06:35,14.98264533,0.0002875,70.0003,64.1328,264.3628,95.7203,-0.00076902,-9.241e-05,0.0,0 STARLINK-5494,1 55650U 23021Y   24133.50458193 -.00009241  00000-0 -76902-3 0  9992,2 55650  70.0003  64.1328 0002875 264.3628  95.7203 14.98264533 68702,6950.395,96.111,574.259,570.262,0.0
55650.0,STARLINK-5494,PAYLOAD,2024-05-12 21:43:21,14.98302224,0.0002582,70.0012,63.1232,270.5628,89.5235,-0.00020811,-2.573e-05,0.0,0 STARLINK-5494,1 55650U 23021Y   24133.90511572 -.00002573  00000-0 -20811-3 0  9996,2 55650  70.0012  63.1232 0002582 270.5628  89.5235 14.98302224 68761,6950.279,96.109,573.938,570.349,0.0
